[
  {
    "OBJECT_NAME": "STARLINK-4634",
    "OBJECT_ID": "22125D",
    "EPOCH": "2025-11-11T06:22:59.313792",
    "MEAN_MOTION": 15.08828213,
    "ECCENTRICITY": 0.0001014,
    "INCLINATION": 53.2198,
    "RA_OF_ASC_NODE": 35.7838,
    "ARG_OF_PERICENTER": 95.8599,
    "MEAN_ANOMALY": 264.2509,
    "EPHEMERIS_TYPE": 0,
    "CLASSIFICATION_TYPE": "U",
    "NORAD_CAT_ID": 53967,
    "ELEMENT_SET_NO": 999,
    "REV_AT_EPOCH": 17144,
    "BSTAR": 6.9437e-05,
    "MEAN_MOTION_DOT": 8.17e-06,
    "MEAN_MOTION_DDOT": 0.0,
    "TLE_LINE1": "1 53967U 22125D   25315.26596428  .00000817  00000+0  69437-4 0  9998",
    "TLE_LINE2": "2 53967  53.2198  35.7838 0001014  95.8599 264.2509 15.08828213171448",
    "COMMENT": "Grouped by shell and plane from TLE"
  },
  {
    "OBJECT_NAME": "STARLINK-4629",
    "OBJECT_ID": "22125E",
    "EPOCH": "2025-11-11T06:07:02.407008",
    "MEAN_MOTION": 15.0883548,
    "ECCENTRICITY": 0.0001294,
    "INCLINATION": 53.2183,
    "RA_OF_ASC_NODE": 35.714,
    "ARG_OF_PERICENTER": 99.5675,
    "MEAN_ANOMALY": 260.5463,
    "EPHEMERIS_TYPE": 0,
    "CLASSIFICATION_TYPE": "U",
    "NORAD_CAT_ID": 53968,
    "ELEMENT_SET_NO": 999,
    "REV_AT_EPOCH": 17144,
    "BSTAR": 0.0,
    "MEAN_MOTION_DOT": -2.497e-05,
    "MEAN_MOTION_DDOT": 0.0,
    "TLE_LINE1": "1 53968U 22125E   25315.25488897 -.00002497  00000+0 -13885-3 0  9991",
    "TLE_LINE2": "2 53968  53.2183  35.7140 0001294  99.5675 260.5463 15.08835480171447",
    "COMMENT": "Grouped by shell and plane from TLE"
  },
  {
    "OBJECT_NAME": "STARLINK-4468",
    "OBJECT_ID": "22125F",
    "EPOCH": "2025-11-11T06:17:39.201792",
    "MEAN_MOTION": 15.08837248,
    "ECCENTRICITY": 0.0001197,
    "INCLINATION": 53.219,
    "RA_OF_ASC_NODE": 35.7605,
    "ARG_OF_PERICENTER": 77.0347,
    "MEAN_ANOMALY": 283.0779,
    "EPHEMERIS_TYPE": 0,
    "CLASSIFICATION_TYPE": "U",
    "NORAD_CAT_ID": 53969,
    "ELEMENT_SET_NO": 999,
    "REV_AT_EPOCH": 17144,
    "BSTAR": 8.8534e-05,
    "MEAN_MOTION_DOT": 1.121e-05,
    "MEAN_MOTION_DDOT": 0.0,
    "TLE_LINE1": "1 53969U 22125F   25315.26225928  .00001121  00000+0  88534-4 0  9992",
    "TLE_LINE2": "2 53969  53.2190  35.7605 0001197  77.0347 283.0779 15.08837248171445",
    "COMMENT": "Grouped by shell and plane from TLE"
  },
  {
    "OBJECT_NAME": "STARLINK-4567",
    "OBJECT_ID": "22125G",
    "EPOCH": "2025-11-11T06:20:58.265664",
    "MEAN_MOTION": 15.08836715,
    "ECCENTRICITY": 0.0001624,
    "INCLINATION": 53.2187,
    "RA_OF_ASC_NODE": 30.7932,
    "ARG_OF_PERICENTER": 97.1932,
    "MEAN_ANOMALY": 262.9245,
    "EPHEMERIS_TYPE": 0,
    "CLASSIFICATION_TYPE": "U",
    "NORAD_CAT_ID": 53970,
    "ELEMENT_SET_NO": 999,
    "REV_AT_EPOCH": 17152,
    "BSTAR": 0.0001146,
    "MEAN_MOTION_DOT": 1.536e-05,
    "MEAN_MOTION_DDOT": 0.0,
    "TLE_LINE1": "1 53970U 22125G   25315.26456326  .00001536  00000+0  11460-3 0  9995",
    "TLE_LINE2": "2 53970  53.2187  30.7932 0001624  97.1932 262.9245 15.08836715171520",
    "COMMENT": "Grouped by shell and plane from TLE"
  },
  {
    "OBJECT_NAME": "STARLINK-5156",
    "OBJECT_ID": "22125K",
    "EPOCH": "2025-11-11T06:01:43.951296",
    "MEAN_MOTION": 15.08839757,
    "ECCENTRICITY": 0.0001419,
    "INCLINATION": 53.2176,
    "RA_OF_ASC_NODE": 35.6878,
    "ARG_OF_PERICENTER": 95.4802,
    "MEAN_ANOMALY": 264.6353,
    "EPHEMERIS_TYPE": 0,
    "CLASSIFICATION_TYPE": "U",
    "NORAD_CAT_ID": 53973,
    "ELEMENT_SET_NO": 999,
    "REV_AT_EPOCH": 17144,
    "BSTAR": 0.0,
    "MEAN_MOTION_DOT": -6.59e-06,
    "MEAN_MOTION_DDOT": 0.0,
    "TLE_LINE1": "1 53973U 22125K   25315.25120314 -.00000659  00000+0 -23300-4 0  9996",
    "TLE_LINE2": "2 53973  53.2176  35.6878 0001419  95.4802 264.6353 15.08839757171442",
    "COMMENT": "Grouped by shell and plane from TLE"
  },
  {
    "OBJECT_NAME": "STARLINK-5137",
    "OBJECT_ID": "22125M",
    "EPOCH": "2025-11-11T05:17:17.817504",
    "MEAN_MOTION": 15.08840435,
    "ECCENTRICITY": 0.0001468,
    "INCLINATION": 53.22,
    "RA_OF_ASC_NODE": 30.5244,
    "ARG_OF_PERICENTER": 96.4665,
    "MEAN_ANOMALY": 263.6494,
    "EPHEMERIS_TYPE": 0,
    "CLASSIFICATION_TYPE": "U",
    "NORAD_CAT_ID": 53975,
    "ELEMENT_SET_NO": 999,
    "REV_AT_EPOCH": 17151,
    "BSTAR": 2.0153e-05,
    "MEAN_MOTION_DOT": 3.3e-07,
    "MEAN_MOTION_DDOT": 0.0,
    "TLE_LINE1": "1 53975U 22125M   25315.22034511  .00000033  00000+0  20153-4 0  9995",
    "TLE_LINE2": "2 53975  53.2200  30.5244 0001468  96.4665 263.6494 15.08840435171513",
    "COMMENT": "Grouped by shell and plane from TLE"
  },
  {
    "OBJECT_NAME": "STARLINK-5094",
    "OBJECT_ID": "22125P",
    "EPOCH": "2025-11-11T04:56:11.519232",
    "MEAN_MOTION": 15.08844354,
    "ECCENTRICITY": 0.0001606,
    "INCLINATION": 53.2198,
    "RA_OF_ASC_NODE": 31.127,
    "ARG_OF_PERICENTER": 90.4917,
    "MEAN_ANOMALY": 269.626,
    "EPHEMERIS_TYPE": 0,
    "CLASSIFICATION_TYPE": "U",
    "NORAD_CAT_ID": 53977,
    "ELEMENT_SET_NO": 999,
    "REV_AT_EPOCH": 17150,
    "BSTAR": 0.00014130000000000002,
    "MEAN_MOTION_DOT": 1.962e-05,
    "MEAN_MOTION_DDOT": 0.0,
    "TLE_LINE1": "1 53977U 22125P   25315.20568888  .00001962  00000+0  14130-3 0  9993",
    "TLE_LINE2": "2 53977  53.2198  31.1270 0001606  90.4917 269.6260 15.08844354171505",
    "COMMENT": "Grouped by shell and plane from TLE"
  },
  {
    "OBJECT_NAME": "STARLINK-5148",
    "OBJECT_ID": "22125Q",
    "EPOCH": "2025-11-11T06:05:03.512832",
    "MEAN_MOTION": 15.08817304,
    "ECCENTRICITY": 9.64e-05,
    "INCLINATION": 53.2187,
    "RA_OF_ASC_NODE": 30.7187,
    "ARG_OF_PERICENTER": 62.1797,
    "MEAN_ANOMALY": 297.9293,
    "EPHEMERIS_TYPE": 0,
    "CLASSIFICATION_TYPE": "U",
    "NORAD_CAT_ID": 53978,
    "ELEMENT_SET_NO": 999,
    "REV_AT_EPOCH": 17151,
    "BSTAR": 0.00012723,
    "MEAN_MOTION_DOT": 1.737e-05,
    "MEAN_MOTION_DDOT": 0.0,
    "TLE_LINE1": "1 53978U 22125Q   25315.25351288  .00001737  00000+0  12723-3 0  9999",
    "TLE_LINE2": "2 53978  53.2187  30.7187 0000964  62.1797 297.9293 15.08817304171510",
    "COMMENT": "Grouped by shell and plane from TLE"
  },
  {
    "OBJECT_NAME": "STARLINK-5123",
    "OBJECT_ID": "22125R",
    "EPOCH": "2025-11-11T06:15:39.761568",
    "MEAN_MOTION": 15.08840541,
    "ECCENTRICITY": 0.0001441,
    "INCLINATION": 53.2191,
    "RA_OF_ASC_NODE": 30.7649,
    "ARG_OF_PERICENTER": 106.7938,
    "MEAN_ANOMALY": 253.3213,
    "EPHEMERIS_TYPE": 0,
    "CLASSIFICATION_TYPE": "U",
    "NORAD_CAT_ID": 53979,
    "ELEMENT_SET_NO": 999,
    "REV_AT_EPOCH": 17151,
    "BSTAR": 4.9308e-05,
    "MEAN_MOTION_DOT": 4.97e-06,
    "MEAN_MOTION_DDOT": 0.0,
    "TLE_LINE1": "1 53979U 22125R   25315.26087687  .00000497  00000+0  49308-4 0  9992",
    "TLE_LINE2": "2 53979  53.2191  30.7649 0001441 106.7938 253.3213 15.08840541171519",
    "COMMENT": "Grouped by shell and plane from TLE"
  },
  {
    "OBJECT_NAME": "STARLINK-5133",
    "OBJECT_ID": "22125S",
    "EPOCH": "2025-11-11T05:38:31.339680",
    "MEAN_MOTION": 15.08845341,
    "ECCENTRICITY": 0.0001355,
    "INCLINATION": 53.2179,
    "RA_OF_ASC_NODE": 30.6042,
    "ARG_OF_PERICENTER": 67.1255,
    "MEAN_ANOMALY": 292.988,
    "EPHEMERIS_TYPE": 0,
    "CLASSIFICATION_TYPE": "U",
    "NORAD_CAT_ID": 53980,
    "ELEMENT_SET_NO": 999,
    "REV_AT_EPOCH": 17151,
    "BSTAR": 0.0,
    "MEAN_MOTION_DOT": -1.466e-05,
    "MEAN_MOTION_DDOT": 0.0,
    "TLE_LINE1": "1 53980U 22125S   25315.23508495 -.00001466  00000+0 -74013-4 0  9996",
    "TLE_LINE2": "2 53980  53.2179  30.6042 0001355  67.1255 292.9880 15.08845341171511",
    "COMMENT": "Grouped by shell and plane from TLE"
  },
  {
    "OBJECT_NAME": "STARLINK-5061",
    "OBJECT_ID": "22177AD",
    "EPOCH": "2025-11-11T06:25:17.010336",
    "MEAN_MOTION": 15.02547136,
    "ECCENTRICITY": 0.0001152,
    "INCLINATION": 43.0054,
    "RA_OF_ASC_NODE": 30.6127,
    "ARG_OF_PERICENTER": 262.8003,
    "MEAN_ANOMALY": 97.2708,
    "EPHEMERIS_TYPE": 0,
    "CLASSIFICATION_TYPE": "U",
    "NORAD_CAT_ID": 54847,
    "ELEMENT_SET_NO": 999,
    "REV_AT_EPOCH": 15944,
    "BSTAR": 9.9186e-05,
    "MEAN_MOTION_DOT": 1.137e-05,
    "MEAN_MOTION_DDOT": 0.0,
    "TLE_LINE1": "1 54847U 22177AD  25315.26755799  .00001137  00000+0  99186-4 0  9991",
    "TLE_LINE2": "2 54847  43.0054  30.6127 0001152 262.8003  97.2708 15.02547136159445",
    "COMMENT": "Grouped by shell and plane from TLE"
  },
  {
    "OBJECT_NAME": "STARLINK-6077",
    "OBJECT_ID": "23046E",
    "EPOCH": "2025-11-11T06:04:32.479680",
    "MEAN_MOTION": 15.02536167,
    "ECCENTRICITY": 0.0001093,
    "INCLINATION": 43.0027,
    "RA_OF_ASC_NODE": 30.6505,
    "ARG_OF_PERICENTER": 278.0588,
    "MEAN_ANOMALY": 82.0131,
    "EPHEMERIS_TYPE": 0,
    "CLASSIFICATION_TYPE": "U",
    "NORAD_CAT_ID": 56097,
    "ELEMENT_SET_NO": 999,
    "REV_AT_EPOCH": 14484,
    "BSTAR": 6.4623e-05,
    "MEAN_MOTION_DOT": 6.69e-06,
    "MEAN_MOTION_DDOT": 0.0,
    "TLE_LINE1": "1 56097U 23046E   25315.25315370  .00000669  00000+0  64623-4 0  9999",
    "TLE_LINE2": "2 56097  43.0027  30.6505 0001093 278.0588  82.0131 15.02536167144847",
    "COMMENT": "Grouped by shell and plane from TLE"
  },
  {
    "OBJECT_NAME": "STARLINK-5140",
    "OBJECT_ID": "23046BH",
    "EPOCH": "2025-11-11T07:16:27.439968",
    "MEAN_MOTION": 15.02537836,
    "ECCENTRICITY": 0.0001467,
    "INCLINATION": 43.0049,
    "RA_OF_ASC_NODE": 31.0101,
    "ARG_OF_PERICENTER": 283.0529,
    "MEAN_ANOMALY": 77.0149,
    "EPHEMERIS_TYPE": 0,
    "CLASSIFICATION_TYPE": "U",
    "NORAD_CAT_ID": 56147,
    "ELEMENT_SET_NO": 999,
    "REV_AT_EPOCH": 14484,
    "BSTAR": 6.560700000000001e-05,
    "MEAN_MOTION_DOT": 6.83e-06,
    "MEAN_MOTION_DDOT": 0.0,
    "TLE_LINE1": "1 56147U 23046BH  25315.30309537  .00000683  00000+0  65607-4 0  9998",
    "TLE_LINE2": "2 56147  43.0049  31.0101 0001467 283.0529  77.0149 15.02537836144847",
    "COMMENT": "Grouped by shell and plane from TLE"
  }
]